ONEWEB-0228             
1 48780U 21045P   24086.93666020  .00000013  00000+0 -67647-6 0  9991
2 48780  87.8984  60.8196 0001856  80.0538 280.0802 13.15548560137534
